zip,Zipcode name,City,State,County Name
79311,"ABERNATHY, TX",ABERNATHY,TX,Hale County
75001,"ADDISON, TX",ADDISON,TX,Dallas County
78101,"ADKINS, TX",ADKINS,TX,Bexar County
78330,"AGUA DULCE, TX",AGUA DULCE,TX,Nueces County
79221,"AIKEN, TX",AIKEN,TX,Floyd County
78516,"ALAMO, TX",ALAMO,TX,Hidalgo County
77411,"ALIEF, TX",ALIEF,TX,Harris County
79312,"AMHERST, TX",AMHERST,TX,Lamb County
79714,"ANDREWS, TX",ANDREWS,TX,Andrews County
79313,"ANTON, TX",ANTON,TX,Hockley County
78338,"ARMSTRONG, TX",ARMSTRONG,TX,Kenedy County
78827,"ASHERTON, TX",ASHERTON,TX,Dimmit County
78002,"ATASCOSA, TX",ATASCOSA,TX,Bexar County
77950,"AUSTWELL, TX",AUSTWELL,TX,Refugio County
75180,"BALCH SPRINGS, TX",BALCH SPRINGS,TX,Dallas County
79718,"BALMORHEA, TX",BALMORHEA,TX,Reeves County
78339,"BANQUETE, TX",BANQUETE,TX,Nueces County
77413,"BARKER, TX",BARKER,TX,Harris County
78828,"BARKSDALE, TX",BARKSDALE,TX,Edwards County
79719,"BARSTOW, TX",BARSTOW,TX,Ward County
78829,"BATESVILLE, TX",BATESVILLE,TX,Zavala County
77404,"BAY CITY, TX",BAY CITY,TX,Matagorda County
77414,"BAY CITY, TX",BAY CITY,TX,Matagorda County
78340,"BAYSIDE, TX",BAYSIDE,TX,Refugio County
77520,"BAYTOWN, TX",BAYTOWN,TX,Harris County
77521,"BAYTOWN, TX",BAYTOWN,TX,Harris County
77522,"BAYTOWN, TX",BAYTOWN,TX,Harris County
77701,"BEAUMONT, TX",BEAUMONT,TX,Jefferson County
77702,"BEAUMONT, TX",BEAUMONT,TX,Jefferson County
77703,"BEAUMONT, TX",BEAUMONT,TX,Jefferson County
77704,"BEAUMONT, TX",BEAUMONT,TX,Jefferson County
77705,"BEAUMONT, TX",BEAUMONT,TX,Jefferson County
77706,"BEAUMONT, TX",BEAUMONT,TX,Jefferson County
77707,"BEAUMONT, TX",BEAUMONT,TX,Jefferson County
77708,"BEAUMONT, TX",BEAUMONT,TX,Jefferson County
77709,"BEAUMONT, TX",BEAUMONT,TX,Jefferson County
77710,"BEAUMONT, TX",BEAUMONT,TX,Jefferson County
77713,"BEAUMONT, TX",BEAUMONT,TX,Jefferson County
77720,"BEAUMONT, TX",BEAUMONT,TX,Jefferson County
77725,"BEAUMONT, TX",BEAUMONT,TX,Jefferson County
77726,"BEAUMONT, TX",BEAUMONT,TX,Jefferson County
78102,"BEEVILLE, TX",BEEVILLE,TX,Bee County
78104,"BEEVILLE, TX",BEEVILLE,TX,Bee County
77401,"BELLAIRE, TX",BELLAIRE,TX,Harris County
77402,"BELLAIRE, TX",BELLAIRE,TX,Harris County
78604,"BELMONT, TX",BELMONT,TX,Gonzales County
78341,"BENAVIDES, TX",BENAVIDES,TX,Duval County
76932,"BIG LAKE, TX",BIG LAKE,TX,Reagan County
78830,"BIG WELLS, TX",BIG WELLS,TX,Dimmit County
78005,"BIGFOOT, TX",BIGFOOT,TX,Frio County
78343,"BISHOP, TX",BISHOP,TX,Nueces County
79314,"BLEDSOE, TX",BLEDSOE,TX,Cochran County
77419,"BLESSING, TX",BLESSING,TX,Matagorda County
77951,"BLOOMINGTON, TX",BLOOMINGTON,TX,Victoria County
77420,"BOLING, TX",BOLING,TX,Wharton County
79009,"BOVINA, TX",BOVINA,TX,Parmer County
78832,"BRACKETTVILLE, TX",BRACKETTVILLE,TX,Kinney County
77423,"BROOKSHIRE, TX",BROOKSHIRE,TX,Waller County
79316,"BROWNFIELD, TX",BROWNFIELD,TX,Terry County
78520,"BROWNSVILLE, TX",BROWNSVILLE,TX,Cameron County
78521,"BROWNSVILLE, TX",BROWNSVILLE,TX,Cameron County
78522,"BROWNSVILLE, TX",BROWNSVILLE,TX,Cameron County
78523,"BROWNSVILLE, TX",BROWNSVILLE,TX,Cameron County
78526,"BROWNSVILLE, TX",BROWNSVILLE,TX,Cameron County
78344,"BRUNI, TX",BRUNI,TX,Webb County
79013,"CACTUS, TX",CACTUS,TX,Moore County
78008,"CAMPBELLTON, TX",CAMPBELLTON,TX,Atascosa County
78834,"CARRIZO SPRINGS, TX",CARRIZO SPRINGS,TX,Dimmit County
75006,"CARROLLTON, TX",CARROLLTON,TX,Dallas County
75011,"CARROLLTON, TX",CARROLLTON,TX,Dallas County
78009,"CASTROVILLE, TX",CASTROVILLE,TX,Medina County
78836,"CATARINA, TX",CATARINA,TX,Dimmit County
75104,"CEDAR HILL, TX",CEDAR HILL,TX,Dallas County
75106,"CEDAR HILL, TX",CEDAR HILL,TX,Dallas County
77415,"CEDAR LANE, TX",CEDAR LANE,TX,Matagorda County
77530,"CHANNELVIEW, TX",CHANNELVIEW,TX,Harris County
78011,"CHARLOTTE, TX",CHARLOTTE,TX,Atascosa County
77613,"CHINA, TX",CHINA,TX,Jefferson County
78012,"CHRISTINE, TX",CHRISTINE,TX,Atascosa County
79512,"COLORADO CITY, TX",COLORADO CITY,TX,Mitchell County
78535,"COMBES, TX",COMBES,TX,Cameron County
78838,"CONCAN, TX",CONCAN,TX,Uvalde County
78109,"CONVERSE, TX",CONVERSE,TX,Bexar County
75558,"COOKVILLE, TX",COOKVILLE,TX,Titus County
75019,"COPPELL, TX",COPPELL,TX,Dallas County
75099,"COPPELL, TX",COPPELL,TX,Dallas County
78401,"CORPUS CHRISTI, TX",CORPUS CHRISTI,TX,Nueces County
78402,"CORPUS CHRISTI, TX",CORPUS CHRISTI,TX,Nueces County
78403,"CORPUS CHRISTI, TX",CORPUS CHRISTI,TX,Nueces County
78404,"CORPUS CHRISTI, TX",CORPUS CHRISTI,TX,Nueces County
78405,"CORPUS CHRISTI, TX",CORPUS CHRISTI,TX,Nueces County
78406,"CORPUS CHRISTI, TX",CORPUS CHRISTI,TX,Nueces County
78407,"CORPUS CHRISTI, TX",CORPUS CHRISTI,TX,Nueces County
78408,"CORPUS CHRISTI, TX",CORPUS CHRISTI,TX,Nueces County
78409,"CORPUS CHRISTI, TX",CORPUS CHRISTI,TX,Nueces County
78410,"CORPUS CHRISTI, TX",CORPUS CHRISTI,TX,Nueces County
78411,"CORPUS CHRISTI, TX",CORPUS CHRISTI,TX,Nueces County
78412,"CORPUS CHRISTI, TX",CORPUS CHRISTI,TX,Nueces County
78413,"CORPUS CHRISTI, TX",CORPUS CHRISTI,TX,Nueces County
78414,"CORPUS CHRISTI, TX",CORPUS CHRISTI,TX,Nueces County
78415,"CORPUS CHRISTI, TX",CORPUS CHRISTI,TX,Nueces County
78416,"CORPUS CHRISTI, TX",CORPUS CHRISTI,TX,Nueces County
78417,"CORPUS CHRISTI, TX",CORPUS CHRISTI,TX,Nueces County
78418,"CORPUS CHRISTI, TX",CORPUS CHRISTI,TX,Nueces County
78419,"CORPUS CHRISTI, TX",CORPUS CHRISTI,TX,Nueces County
78426,"CORPUS CHRISTI, TX",CORPUS CHRISTI,TX,Nueces County
78427,"CORPUS CHRISTI, TX",CORPUS CHRISTI,TX,Nueces County
78460,"CORPUS CHRISTI, TX",CORPUS CHRISTI,TX,Nueces County
78463,"CORPUS CHRISTI, TX",CORPUS CHRISTI,TX,Nueces County
78465,"CORPUS CHRISTI, TX",CORPUS CHRISTI,TX,Nueces County
78466,"CORPUS CHRISTI, TX",CORPUS CHRISTI,TX,Nueces County
78467,"CORPUS CHRISTI, TX",CORPUS CHRISTI,TX,Nueces County
78468,"CORPUS CHRISTI, TX",CORPUS CHRISTI,TX,Nueces County
78469,"CORPUS CHRISTI, TX",CORPUS CHRISTI,TX,Nueces County
78472,"CORPUS CHRISTI, TX",CORPUS CHRISTI,TX,Nueces County
78480,"CORPUS CHRISTI, TX",CORPUS CHRISTI,TX,Nueces County
78614,"COST, TX",COST,TX,Gonzales County
79021,"COTTON CENTER, TX",COTTON CENTER,TX,Hale County
79730,"COYANOSA, TX",COYANOSA,TX,Pecos County
79731,"CRANE, TX",CRANE,TX,Crane County
77532,"CROSBY, TX",CROSBY,TX,Harris County
79322,"CROSBYTON, TX",CROSBYTON,TX,Crosby County
78839,"CRYSTAL CITY, TX",CRYSTAL CITY,TX,Zavala County
77410,"CYPRESS, TX",CYPRESS,TX,Harris County
77429,"CYPRESS, TX",CYPRESS,TX,Harris County
77433,"CYPRESS, TX",CYPRESS,TX,Harris County
78850,"D HANIS, TX",D HANIS,TX,Medina County
78616,"DALE, TX",DALE,TX,Caldwell County
75201,"DALLAS, TX",DALLAS,TX,Dallas County
75202,"DALLAS, TX",DALLAS,TX,Dallas County
75203,"DALLAS, TX",DALLAS,TX,Dallas County
75204,"DALLAS, TX",DALLAS,TX,Dallas County
75205,"DALLAS, TX",DALLAS,TX,Dallas County
75206,"DALLAS, TX",DALLAS,TX,Dallas County
75207,"DALLAS, TX",DALLAS,TX,Dallas County
75208,"DALLAS, TX",DALLAS,TX,Dallas County
75209,"DALLAS, TX",DALLAS,TX,Dallas County
75210,"DALLAS, TX",DALLAS,TX,Dallas County
75211,"DALLAS, TX",DALLAS,TX,Dallas County
75212,"DALLAS, TX",DALLAS,TX,Dallas County
75214,"DALLAS, TX",DALLAS,TX,Dallas County
75215,"DALLAS, TX",DALLAS,TX,Dallas County
75216,"DALLAS, TX",DALLAS,TX,Dallas County
75217,"DALLAS, TX",DALLAS,TX,Dallas County
75218,"DALLAS, TX",DALLAS,TX,Dallas County
75219,"DALLAS, TX",DALLAS,TX,Dallas County
75220,"DALLAS, TX",DALLAS,TX,Dallas County
75221,"DALLAS, TX",DALLAS,TX,Dallas County
75222,"DALLAS, TX",DALLAS,TX,Dallas County
75223,"DALLAS, TX",DALLAS,TX,Dallas County
75224,"DALLAS, TX",DALLAS,TX,Dallas County
75225,"DALLAS, TX",DALLAS,TX,Dallas County
75226,"DALLAS, TX",DALLAS,TX,Dallas County
75227,"DALLAS, TX",DALLAS,TX,Dallas County
75228,"DALLAS, TX",DALLAS,TX,Dallas County
75229,"DALLAS, TX",DALLAS,TX,Dallas County
75230,"DALLAS, TX",DALLAS,TX,Dallas County
75231,"DALLAS, TX",DALLAS,TX,Dallas County
75232,"DALLAS, TX",DALLAS,TX,Dallas County
75233,"DALLAS, TX",DALLAS,TX,Dallas County
75234,"DALLAS, TX",DALLAS,TX,Dallas County
75235,"DALLAS, TX",DALLAS,TX,Dallas County
75236,"DALLAS, TX",DALLAS,TX,Dallas County
75237,"DALLAS, TX",DALLAS,TX,Dallas County
75238,"DALLAS, TX",DALLAS,TX,Dallas County
75240,"DALLAS, TX",DALLAS,TX,Dallas County
75241,"DALLAS, TX",DALLAS,TX,Dallas County
75242,"DALLAS, TX",DALLAS,TX,Dallas County
75243,"DALLAS, TX",DALLAS,TX,Dallas County
75244,"DALLAS, TX",DALLAS,TX,Dallas County
75246,"DALLAS, TX",DALLAS,TX,Dallas County
75247,"DALLAS, TX",DALLAS,TX,Dallas County
75248,"DALLAS, TX",DALLAS,TX,Dallas County
75249,"DALLAS, TX",DALLAS,TX,Dallas County
75250,"DALLAS, TX",DALLAS,TX,Dallas County
75251,"DALLAS, TX",DALLAS,TX,Dallas County
75253,"DALLAS, TX",DALLAS,TX,Dallas County
75254,"DALLAS, TX",DALLAS,TX,Dallas County
75260,"DALLAS, TX",DALLAS,TX,Dallas County
75261,"DALLAS, TX",DALLAS,TX,Dallas County
75265,"DALLAS, TX",DALLAS,TX,Dallas County
75266,"DALLAS, TX",DALLAS,TX,Dallas County
75270,"DALLAS, TX",DALLAS,TX,Dallas County
75275,"DALLAS, TX",DALLAS,TX,Dallas County
75277,"DALLAS, TX",DALLAS,TX,Dallas County
75283,"DALLAS, TX",DALLAS,TX,Dallas County
75301,"DALLAS, TX",DALLAS,TX,Dallas County
75312,"DALLAS, TX",DALLAS,TX,Dallas County
75313,"DALLAS, TX",DALLAS,TX,Dallas County
75315,"DALLAS, TX",DALLAS,TX,Dallas County
75320,"DALLAS, TX",DALLAS,TX,Dallas County
75326,"DALLAS, TX",DALLAS,TX,Dallas County
75336,"DALLAS, TX",DALLAS,TX,Dallas County
75339,"DALLAS, TX",DALLAS,TX,Dallas County
75342,"DALLAS, TX",DALLAS,TX,Dallas County
75354,"DALLAS, TX",DALLAS,TX,Dallas County
75355,"DALLAS, TX",DALLAS,TX,Dallas County
75356,"DALLAS, TX",DALLAS,TX,Dallas County
75357,"DALLAS, TX",DALLAS,TX,Dallas County
75359,"DALLAS, TX",DALLAS,TX,Dallas County
75360,"DALLAS, TX",DALLAS,TX,Dallas County
75367,"DALLAS, TX",DALLAS,TX,Dallas County
75370,"DALLAS, TX",DALLAS,TX,Dallas County
75371,"DALLAS, TX",DALLAS,TX,Dallas County
75372,"DALLAS, TX",DALLAS,TX,Dallas County
75374,"DALLAS, TX",DALLAS,TX,Dallas County
75376,"DALLAS, TX",DALLAS,TX,Dallas County
75378,"DALLAS, TX",DALLAS,TX,Dallas County
75379,"DALLAS, TX",DALLAS,TX,Dallas County
75380,"DALLAS, TX",DALLAS,TX,Dallas County
75381,"DALLAS, TX",DALLAS,TX,Dallas County
75382,"DALLAS, TX",DALLAS,TX,Dallas County
75390,"DALLAS, TX",DALLAS,TX,Dallas County
75397,"DALLAS, TX",DALLAS,TX,Dallas County
77432,"DANEVANG, TX",DANEVANG,TX,Wharton County
77536,"DEER PARK, TX",DEER PARK,TX,Harris County
79837,"DELL CITY, TX",DELL CITY,TX,Hudspeth County
78536,"DELMITA, TX",DELMITA,TX,Starr County
79323,"DENVER CITY, TX",DENVER CITY,TX,Yoakum County
75115,"DESOTO, TX",DESOTO,TX,Dallas County
75123,"DESOTO, TX",DESOTO,TX,Dallas County
78016,"DEVINE, TX",DEVINE,TX,Medina County
78017,"DILLEY, TX",DILLEY,TX,Frio County
79027,"DIMMITT, TX",DIMMITT,TX,Castro County
78537,"DONNA, TX",DONNA,TX,Hidalgo County
79231,"DOUGHERTY, TX",DOUGHERTY,TX,Floyd County
78351,"DRISCOLL, TX",DRISCOLL,TX,Nueces County
78851,"DRYDEN, TX",DRYDEN,TX,Terrell County
79029,"DUMAS, TX",DUMAS,TX,Moore County
75116,"DUNCANVILLE, TX",DUNCANVILLE,TX,Dallas County
75137,"DUNCANVILLE, TX",DUNCANVILLE,TX,Dallas County
75138,"DUNCANVILLE, TX",DUNCANVILLE,TX,Dallas County
78852,"EAGLE PASS, TX",EAGLE PASS,TX,Maverick County
78853,"EAGLE PASS, TX",EAGLE PASS,TX,Maverick County
79031,"EARTH, TX",EARTH,TX,Lamb County
77435,"EAST BERNARD, TX",EAST BERNARD,TX,Wharton County
78111,"ECLETO, TX",ECLETO,TX,Karnes County
78538,"EDCOUCH, TX",EDCOUCH,TX,Hidalgo County
76837,"EDEN, TX",EDEN,TX,Concho County
78539,"EDINBURG, TX",EDINBURG,TX,Hidalgo County
78540,"EDINBURG, TX",EDINBURG,TX,Hidalgo County
78541,"EDINBURG, TX",EDINBURG,TX,Hidalgo County
78542,"EDINBURG, TX",EDINBURG,TX,Hidalgo County
79032,"EDMONSON, TX",EDMONSON,TX,Hale County
77436,"EGYPT, TX",EGYPT,TX,Wharton County
77437,"EL CAMPO, TX",EL CAMPO,TX,Wharton County
78860,"EL INDIO, TX",EL INDIO,TX,Maverick County
76936,"ELDORADO, TX",ELDORADO,TX,Schleicher County
77440,"ELMATON, TX",ELMATON,TX,Matagorda County
78112,"ELMENDORF, TX",ELMENDORF,TX,Bexar County
78543,"ELSA, TX",ELSA,TX,Hidalgo County
78353,"ENCINO, TX",ENCINO,TX,Brooks County
76937,"EOLA, TX",EOLA,TX,Concho County
78355,"FALFURRIAS, TX",FALFURRIAS,TX,Brooks County
78113,"FALLS CITY, TX",FALLS CITY,TX,Karnes County
79033,"FARNSWORTH, TX",FARNSWORTH,TX,Ochiltree County
79325,"FARWELL, TX",FARWELL,TX,Parmer County
78622,"FENTRESS, TX",FENTRESS,TX,Caldwell County
79326,"FIELDTON, TX",FIELDTON,TX,Lamb County
79235,"FLOYDADA, TX",FLOYDADA,TX,Floyd County
79839,"FORT HANCOCK, TX",FORT HANCOCK,TX,Hudspeth County
79735,"FORT STOCKTON, TX",FORT STOCKTON,TX,Pecos County
78357,"FREER, TX",FREER,TX,Duval County
79035,"FRIONA, TX",FRIONA,TX,Parmer County
77547,"GALENA PARK, TX",GALENA PARK,TX,Harris County
78547,"GARCIASVILLE, TX",GARCIASVILLE,TX,Starr County
79758,"GARDENDALE, TX",GARDENDALE,TX,Ector County
75040,"GARLAND, TX",GARLAND,TX,Dallas County
75041,"GARLAND, TX",GARLAND,TX,Dallas County
75042,"GARLAND, TX",GARLAND,TX,Dallas County
75043,"GARLAND, TX",GARLAND,TX,Dallas County
75044,"GARLAND, TX",GARLAND,TX,Dallas County
75045,"GARLAND, TX",GARLAND,TX,Dallas County
75046,"GARLAND, TX",GARLAND,TX,Dallas County
75047,"GARLAND, TX",GARLAND,TX,Dallas County
75049,"GARLAND, TX",GARLAND,TX,Dallas County
78116,"GILLETT, TX",GILLETT,TX,Karnes County
77443,"GLEN FLORA, TX",GLEN FLORA,TX,Wharton County
79741,"GOLDSMITH, TX",GOLDSMITH,TX,Ector County
78629,"GONZALES, TX",GONZALES,TX,Gonzales County
75050,"GRAND PRAIRIE, TX",GRAND PRAIRIE,TX,Dallas County
75051,"GRAND PRAIRIE, TX",GRAND PRAIRIE,TX,Dallas County
75052,"GRAND PRAIRIE, TX",GRAND PRAIRIE,TX,Dallas County
75053,"GRAND PRAIRIE, TX",GRAND PRAIRIE,TX,Dallas County
75054,"GRAND PRAIRIE, TX",GRAND PRAIRIE,TX,Dallas County
79742,"GRANDFALLS, TX",GRANDFALLS,TX,Ward County
77619,"GROVES, TX",GROVES,TX,Jefferson County
78548,"GRULLA, TX",GRULLA,TX,Starr County
79041,"HALE CENTER, TX",HALE CENTER,TX,Hale County
77622,"HAMSHIRE, TX",HAMSHIRE,TX,Jefferson County
79042,"HAPPY, TX",HAPPY,TX,Swisher County
78549,"HARGILL, TX",HARGILL,TX,Hidalgo County
78550,"HARLINGEN, TX",HARLINGEN,TX,Cameron County
78551,"HARLINGEN, TX",HARLINGEN,TX,Cameron County
78552,"HARLINGEN, TX",HARLINGEN,TX,Cameron County
78553,"HARLINGEN, TX",HARLINGEN,TX,Cameron County
79043,"HART, TX",HART,TX,Castro County
78632,"HARWOOD, TX",HARWOOD,TX,Gonzales County
78023,"HELOTES, TX",HELOTES,TX,Bexar County
77445,"HEMPSTEAD, TX",HEMPSTEAD,TX,Waller County
78557,"HIDALGO, TX",HIDALGO,TX,Hidalgo County
77562,"HIGHLANDS, TX",HIGHLANDS,TX,Harris County
78117,"HOBSON, TX",HOBSON,TX,Karnes County
77447,"HOCKLEY, TX",HOCKLEY,TX,Harris County
78861,"HONDO, TX",HONDO,TX,Medina County
77001,"HOUSTON, TX",HOUSTON,TX,Harris County
77002,"HOUSTON, TX",HOUSTON,TX,Harris County
77003,"HOUSTON, TX",HOUSTON,TX,Harris County
77004,"HOUSTON, TX",HOUSTON,TX,Harris County
77005,"HOUSTON, TX",HOUSTON,TX,Harris County
77006,"HOUSTON, TX",HOUSTON,TX,Harris County
77007,"HOUSTON, TX",HOUSTON,TX,Harris County
77008,"HOUSTON, TX",HOUSTON,TX,Harris County
77009,"HOUSTON, TX",HOUSTON,TX,Harris County
77010,"HOUSTON, TX",HOUSTON,TX,Harris County
77011,"HOUSTON, TX",HOUSTON,TX,Harris County
77012,"HOUSTON, TX",HOUSTON,TX,Harris County
77013,"HOUSTON, TX",HOUSTON,TX,Harris County
77014,"HOUSTON, TX",HOUSTON,TX,Harris County
77015,"HOUSTON, TX",HOUSTON,TX,Harris County
77016,"HOUSTON, TX",HOUSTON,TX,Harris County
77017,"HOUSTON, TX",HOUSTON,TX,Harris County
77018,"HOUSTON, TX",HOUSTON,TX,Harris County
77019,"HOUSTON, TX",HOUSTON,TX,Harris County
77020,"HOUSTON, TX",HOUSTON,TX,Harris County
77021,"HOUSTON, TX",HOUSTON,TX,Harris County
77022,"HOUSTON, TX",HOUSTON,TX,Harris County
77023,"HOUSTON, TX",HOUSTON,TX,Harris County
77024,"HOUSTON, TX",HOUSTON,TX,Harris County
77025,"HOUSTON, TX",HOUSTON,TX,Harris County
77026,"HOUSTON, TX",HOUSTON,TX,Harris County
77027,"HOUSTON, TX",HOUSTON,TX,Harris County
77028,"HOUSTON, TX",HOUSTON,TX,Harris County
77029,"HOUSTON, TX",HOUSTON,TX,Harris County
77030,"HOUSTON, TX",HOUSTON,TX,Harris County
77031,"HOUSTON, TX",HOUSTON,TX,Harris County
77032,"HOUSTON, TX",HOUSTON,TX,Harris County
77033,"HOUSTON, TX",HOUSTON,TX,Harris County
77034,"HOUSTON, TX",HOUSTON,TX,Harris County
77035,"HOUSTON, TX",HOUSTON,TX,Harris County
77036,"HOUSTON, TX",HOUSTON,TX,Harris County
77037,"HOUSTON, TX",HOUSTON,TX,Harris County
77038,"HOUSTON, TX",HOUSTON,TX,Harris County
77039,"HOUSTON, TX",HOUSTON,TX,Harris County
77040,"HOUSTON, TX",HOUSTON,TX,Harris County
77041,"HOUSTON, TX",HOUSTON,TX,Harris County
77042,"HOUSTON, TX",HOUSTON,TX,Harris County
77043,"HOUSTON, TX",HOUSTON,TX,Harris County
77044,"HOUSTON, TX",HOUSTON,TX,Harris County
77045,"HOUSTON, TX",HOUSTON,TX,Harris County
77046,"HOUSTON, TX",HOUSTON,TX,Harris County
77047,"HOUSTON, TX",HOUSTON,TX,Harris County
77048,"HOUSTON, TX",HOUSTON,TX,Harris County
77049,"HOUSTON, TX",HOUSTON,TX,Harris County
77050,"HOUSTON, TX",HOUSTON,TX,Harris County
77051,"HOUSTON, TX",HOUSTON,TX,Harris County
77052,"HOUSTON, TX",HOUSTON,TX,Harris County
77054,"HOUSTON, TX",HOUSTON,TX,Harris County
77055,"HOUSTON, TX",HOUSTON,TX,Harris County
77056,"HOUSTON, TX",HOUSTON,TX,Harris County
77057,"HOUSTON, TX",HOUSTON,TX,Harris County
77058,"HOUSTON, TX",HOUSTON,TX,Harris County
77059,"HOUSTON, TX",HOUSTON,TX,Harris County
77060,"HOUSTON, TX",HOUSTON,TX,Harris County
77061,"HOUSTON, TX",HOUSTON,TX,Harris County
77062,"HOUSTON, TX",HOUSTON,TX,Harris County
77063,"HOUSTON, TX",HOUSTON,TX,Harris County
77064,"HOUSTON, TX",HOUSTON,TX,Harris County
77065,"HOUSTON, TX",HOUSTON,TX,Harris County
77066,"HOUSTON, TX",HOUSTON,TX,Harris County
77067,"HOUSTON, TX",HOUSTON,TX,Harris County
77068,"HOUSTON, TX",HOUSTON,TX,Harris County
77069,"HOUSTON, TX",HOUSTON,TX,Harris County
77070,"HOUSTON, TX",HOUSTON,TX,Harris County
77071,"HOUSTON, TX",HOUSTON,TX,Harris County
77072,"HOUSTON, TX",HOUSTON,TX,Harris County
77073,"HOUSTON, TX",HOUSTON,TX,Harris County
77074,"HOUSTON, TX",HOUSTON,TX,Harris County
77075,"HOUSTON, TX",HOUSTON,TX,Harris County
77076,"HOUSTON, TX",HOUSTON,TX,Harris County
77077,"HOUSTON, TX",HOUSTON,TX,Harris County
77078,"HOUSTON, TX",HOUSTON,TX,Harris County
77079,"HOUSTON, TX",HOUSTON,TX,Harris County
77080,"HOUSTON, TX",HOUSTON,TX,Harris County
77081,"HOUSTON, TX",HOUSTON,TX,Harris County
77082,"HOUSTON, TX",HOUSTON,TX,Harris County
77083,"HOUSTON, TX",HOUSTON,TX,Harris County
77084,"HOUSTON, TX",HOUSTON,TX,Harris County
77085,"HOUSTON, TX",HOUSTON,TX,Harris County
77086,"HOUSTON, TX",HOUSTON,TX,Harris County
77087,"HOUSTON, TX",HOUSTON,TX,Harris County
77088,"HOUSTON, TX",HOUSTON,TX,Harris County
77089,"HOUSTON, TX",HOUSTON,TX,Harris County
77090,"HOUSTON, TX",HOUSTON,TX,Harris County
77091,"HOUSTON, TX",HOUSTON,TX,Harris County
77092,"HOUSTON, TX",HOUSTON,TX,Harris County
77093,"HOUSTON, TX",HOUSTON,TX,Harris County
77094,"HOUSTON, TX",HOUSTON,TX,Harris County
77095,"HOUSTON, TX",HOUSTON,TX,Harris County
77096,"HOUSTON, TX",HOUSTON,TX,Harris County
77098,"HOUSTON, TX",HOUSTON,TX,Harris County
77099,"HOUSTON, TX",HOUSTON,TX,Harris County
77201,"HOUSTON, TX",HOUSTON,TX,Harris County
77203,"HOUSTON, TX",HOUSTON,TX,Harris County
77204,"HOUSTON, TX",HOUSTON,TX,Harris County
77205,"HOUSTON, TX",HOUSTON,TX,Harris County
77206,"HOUSTON, TX",HOUSTON,TX,Harris County
77207,"HOUSTON, TX",HOUSTON,TX,Harris County
77208,"HOUSTON, TX",HOUSTON,TX,Harris County
77210,"HOUSTON, TX",HOUSTON,TX,Harris County
77212,"HOUSTON, TX",HOUSTON,TX,Harris County
77213,"HOUSTON, TX",HOUSTON,TX,Harris County
77215,"HOUSTON, TX",HOUSTON,TX,Harris County
77217,"HOUSTON, TX",HOUSTON,TX,Harris County
77218,"HOUSTON, TX",HOUSTON,TX,Harris County
77219,"HOUSTON, TX",HOUSTON,TX,Harris County
77220,"HOUSTON, TX",HOUSTON,TX,Harris County
77221,"HOUSTON, TX",HOUSTON,TX,Harris County
77222,"HOUSTON, TX",HOUSTON,TX,Harris County
77223,"HOUSTON, TX",HOUSTON,TX,Harris County
77224,"HOUSTON, TX",HOUSTON,TX,Harris County
77225,"HOUSTON, TX",HOUSTON,TX,Harris County
77226,"HOUSTON, TX",HOUSTON,TX,Harris County
77227,"HOUSTON, TX",HOUSTON,TX,Harris County
77228,"HOUSTON, TX",HOUSTON,TX,Harris County
77229,"HOUSTON, TX",HOUSTON,TX,Harris County
77230,"HOUSTON, TX",HOUSTON,TX,Harris County
77231,"HOUSTON, TX",HOUSTON,TX,Harris County
77233,"HOUSTON, TX",HOUSTON,TX,Harris County
77234,"HOUSTON, TX",HOUSTON,TX,Harris County
77235,"HOUSTON, TX",HOUSTON,TX,Harris County
77236,"HOUSTON, TX",HOUSTON,TX,Harris County
77237,"HOUSTON, TX",HOUSTON,TX,Harris County
77238,"HOUSTON, TX",HOUSTON,TX,Harris County
77240,"HOUSTON, TX",HOUSTON,TX,Harris County
77241,"HOUSTON, TX",HOUSTON,TX,Harris County
77242,"HOUSTON, TX",HOUSTON,TX,Harris County
77243,"HOUSTON, TX",HOUSTON,TX,Harris County
77244,"HOUSTON, TX",HOUSTON,TX,Harris County
77245,"HOUSTON, TX",HOUSTON,TX,Harris County
77248,"HOUSTON, TX",HOUSTON,TX,Harris County
77249,"HOUSTON, TX",HOUSTON,TX,Harris County
77251,"HOUSTON, TX",HOUSTON,TX,Harris County
77252,"HOUSTON, TX",HOUSTON,TX,Harris County
77253,"HOUSTON, TX",HOUSTON,TX,Harris County
77254,"HOUSTON, TX",HOUSTON,TX,Harris County
77255,"HOUSTON, TX",HOUSTON,TX,Harris County
77256,"HOUSTON, TX",HOUSTON,TX,Harris County
77257,"HOUSTON, TX",HOUSTON,TX,Harris County
77258,"HOUSTON, TX",HOUSTON,TX,Harris County
77259,"HOUSTON, TX",HOUSTON,TX,Harris County
77261,"HOUSTON, TX",HOUSTON,TX,Harris County
77262,"HOUSTON, TX",HOUSTON,TX,Harris County
77263,"HOUSTON, TX",HOUSTON,TX,Harris County
77265,"HOUSTON, TX",HOUSTON,TX,Harris County
77266,"HOUSTON, TX",HOUSTON,TX,Harris County
77267,"HOUSTON, TX",HOUSTON,TX,Harris County
77268,"HOUSTON, TX",HOUSTON,TX,Harris County
77269,"HOUSTON, TX",HOUSTON,TX,Harris County
77270,"HOUSTON, TX",HOUSTON,TX,Harris County
77271,"HOUSTON, TX",HOUSTON,TX,Harris County
77272,"HOUSTON, TX",HOUSTON,TX,Harris County
77273,"HOUSTON, TX",HOUSTON,TX,Harris County
77274,"HOUSTON, TX",HOUSTON,TX,Harris County
77275,"HOUSTON, TX",HOUSTON,TX,Harris County
77277,"HOUSTON, TX",HOUSTON,TX,Harris County
77279,"HOUSTON, TX",HOUSTON,TX,Harris County
77280,"HOUSTON, TX",HOUSTON,TX,Harris County
77282,"HOUSTON, TX",HOUSTON,TX,Harris County
77284,"HOUSTON, TX",HOUSTON,TX,Harris County
77287,"HOUSTON, TX",HOUSTON,TX,Harris County
77288,"HOUSTON, TX",HOUSTON,TX,Harris County
77289,"HOUSTON, TX",HOUSTON,TX,Harris County
77290,"HOUSTON, TX",HOUSTON,TX,Harris County
77291,"HOUSTON, TX",HOUSTON,TX,Harris County
77292,"HOUSTON, TX",HOUSTON,TX,Harris County
77293,"HOUSTON, TX",HOUSTON,TX,Harris County
77336,"HUFFMAN, TX",HUFFMAN,TX,Harris County
77337,"HUFSMITH, TX",HUFSMITH,TX,Harris County
77338,"HUMBLE, TX",HUMBLE,TX,Harris County
77346,"HUMBLE, TX",HUMBLE,TX,Harris County
77347,"HUMBLE, TX",HUMBLE,TX,Harris County
77396,"HUMBLE, TX",HUMBLE,TX,Harris County
77448,"HUNGERFORD, TX",HUNGERFORD,TX,Wharton County
75141,"HUTCHINS, TX",HUTCHINS,TX,Dallas County
79743,"IMPERIAL, TX",IMPERIAL,TX,Pecos County
77968,"INEZ, TX",INEZ,TX,Victoria County
79744,"IRAAN, TX",IRAAN,TX,Pecos County
75014,"IRVING, TX",IRVING,TX,Dallas County
75015,"IRVING, TX",IRVING,TX,Dallas County
75016,"IRVING, TX",IRVING,TX,Dallas County
75017,"IRVING, TX",IRVING,TX,Dallas County
75038,"IRVING, TX",IRVING,TX,Dallas County
75039,"IRVING, TX",IRVING,TX,Dallas County
75060,"IRVING, TX",IRVING,TX,Dallas County
75061,"IRVING, TX",IRVING,TX,Dallas County
75062,"IRVING, TX",IRVING,TX,Dallas County
75063,"IRVING, TX",IRVING,TX,Dallas County
78234,"JBSA FT SAM HOUSTON, TX",JBSA FT SAM HOUSTON,TX,Bexar County
78236,"JBSA LACKLAND, TX",JBSA LACKLAND,TX,Bexar County
78150,"JBSA RANDOLPH, TX",JBSA RANDOLPH,TX,Bexar County
78026,"JOURDANTON, TX",JOURDANTON,TX,Atascosa County
79330,"JUSTICEBURG, TX",JUSTICEBURG,TX,Garza County
78118,"KARNES CITY, TX",KARNES CITY,TX,Karnes County
77449,"KATY, TX",KATY,TX,Harris County
77450,"KATY, TX",KATY,TX,Harris County
77491,"KATY, TX",KATY,TX,Harris County
77492,"KATY, TX",KATY,TX,Harris County
77493,"KATY, TX",KATY,TX,Harris County
78119,"KENEDY, TX",KENEDY,TX,Karnes County
79745,"KERMIT, TX",KERMIT,TX,Winkler County
78363,"KINGSVILLE, TX",KINGSVILLE,TX,Kleberg County
78364,"KINGSVILLE, TX",KINGSVILLE,TX,Kleberg County
77325,"KINGWOOD, TX",KINGWOOD,TX,Harris County
77339,"KINGWOOD, TX",KINGWOOD,TX,Harris County
77345,"KINGWOOD, TX",KINGWOOD,TX,Harris County
78870,"KNIPPA, TX",KNIPPA,TX,Uvalde County
79052,"KRESS, TX",KRESS,TX,Swisher County
78558,"LA BLANCA, TX",LA BLANCA,TX,Hidalgo County
78039,"LA COSTE, TX",LA COSTE,TX,Medina County
78559,"LA FERIA, TX",LA FERIA,TX,Cameron County
78560,"LA JOYA, TX",LA JOYA,TX,Hidalgo County
77571,"LA PORTE, TX",LA PORTE,TX,Harris County
77572,"LA PORTE, TX",LA PORTE,TX,Harris County
78872,"LA PRYOR, TX",LA PRYOR,TX,Zavala County
78562,"LA VILLA, TX",LA VILLA,TX,Hidalgo County
79331,"LAMESA, TX",LAMESA,TX,Dawson County
75134,"LANCASTER, TX",LANCASTER,TX,Dallas County
75146,"LANCASTER, TX",LANCASTER,TX,Dallas County
77453,"LANE CITY, TX",LANE CITY,TX,Wharton County
78040,"LAREDO, TX",LAREDO,TX,Webb County
78041,"LAREDO, TX",LAREDO,TX,Webb County
78042,"LAREDO, TX",LAREDO,TX,Webb County
78043,"LAREDO, TX",LAREDO,TX,Webb County
78044,"LAREDO, TX",LAREDO,TX,Webb County
78045,"LAREDO, TX",LAREDO,TX,Webb County
78046,"LAREDO, TX",LAREDO,TX,Webb County
78049,"LAREDO, TX",LAREDO,TX,Webb County
78561,"LASARA, TX",LASARA,TX,Willacy County
79053,"LAZBUDDIE, TX",LAZBUDDIE,TX,Parmer County
78122,"LEESVILLE, TX",LEESVILLE,TX,Gonzales County
78050,"LEMING, TX",LEMING,TX,Atascosa County
79336,"LEVELLAND, TX",LEVELLAND,TX,Hockley County
79338,"LEVELLAND, TX",LEVELLAND,TX,Hockley County
78563,"LINN, TX",LINN,TX,Hidalgo County
77454,"LISSIE, TX",LISSIE,TX,Wharton County
79339,"LITTLEFIELD, TX",LITTLEFIELD,TX,Lamb County
78644,"LOCKHART, TX",LOCKHART,TX,Caldwell County
79241,"LOCKNEY, TX",LOCKNEY,TX,Floyd County
79532,"LORAINE, TX",LORAINE,TX,Mitchell County
79343,"LORENZO, TX",LORENZO,TX,Crosby County
78565,"LOS EBANOS, TX",LOS EBANOS,TX,Hidalgo County
78566,"LOS FRESNOS, TX",LOS FRESNOS,TX,Cameron County
78567,"LOS INDIOS, TX",LOS INDIOS,TX,Cameron County
77455,"LOUISE, TX",LOUISE,TX,Wharton County
76855,"LOWAKE, TX",LOWAKE,TX,Concho County
78568,"LOZANO, TX",LOZANO,TX,Cameron County
78648,"LULING, TX",LULING,TX,Caldwell County
78569,"LYFORD, TX",LYFORD,TX,Willacy County
78052,"LYTLE, TX",LYTLE,TX,Atascosa County
78054,"MACDONA, TX",MACDONA,TX,Bexar County
79843,"MARFA, TX",MARFA,TX,Presidio County
77456,"MARKHAM, TX",MARKHAM,TX,Matagorda County
78655,"MARTINDALE, TX",MARTINDALE,TX,Caldwell County
79058,"MASTERSON, TX",MASTERSON,TX,Moore County
77457,"MATAGORDA, TX",MATAGORDA,TX,Matagorda County
78656,"MAXWELL, TX",MAXWELL,TX,Caldwell County
79752,"MC CAMEY, TX",MC CAMEY,TX,Upton County
78501,"MCALLEN, TX",MCALLEN,TX,Hidalgo County
78502,"MCALLEN, TX",MCALLEN,TX,Hidalgo County
78503,"MCALLEN, TX",MCALLEN,TX,Hidalgo County
78504,"MCALLEN, TX",MCALLEN,TX,Hidalgo County
78505,"MCALLEN, TX",MCALLEN,TX,Hidalgo County
79345,"MEADOW, TX",MEADOW,TX,Terry County
78570,"MERCEDES, TX",MERCEDES,TX,Hidalgo County
75149,"MESQUITE, TX",MESQUITE,TX,Dallas County
75150,"MESQUITE, TX",MESQUITE,TX,Dallas County
75181,"MESQUITE, TX",MESQUITE,TX,Dallas County
75185,"MESQUITE, TX",MESQUITE,TX,Dallas County
75187,"MESQUITE, TX",MESQUITE,TX,Dallas County
78056,"MICO, TX",MICO,TX,Medina County
77458,"MIDFIELD, TX",MIDFIELD,TX,Matagorda County
79755,"MIDKIFF, TX",MIDKIFF,TX,Upton County
76862,"MILLERSVIEW, TX",MILLERSVIEW,TX,Concho County
78369,"MIRANDO CITY, TX",MIRANDO CITY,TX,Webb County
78572,"MISSION, TX",MISSION,TX,Hidalgo County
78573,"MISSION, TX",MISSION,TX,Hidalgo County
78574,"MISSION, TX",MISSION,TX,Hidalgo County
79756,"MONAHANS, TX",MONAHANS,TX,Ward County
78057,"MOORE, TX",MOORE,TX,Frio County
79346,"MORTON, TX",MORTON,TX,Cochran County
75455,"MOUNT PLEASANT, TX",MOUNT PLEASANT,TX,Titus County
75456,"MOUNT PLEASANT, TX",MOUNT PLEASANT,TX,Titus County
79347,"MULESHOE, TX",MULESHOE,TX,Bailey County
78059,"NATALIA, TX",NATALIA,TX,Medina County
79063,"NAZARETH, TX",NAZARETH,TX,Castro County
77627,"NEDERLAND, TX",NEDERLAND,TX,Jefferson County
79383,"NEW HOME, TX",NEW HOME,TX,Lynn County
78140,"NIXON, TX",NIXON,TX,Gonzales County
77629,"NOME, TX",NOME,TX,Jefferson County
78142,"NORMANNA, TX",NORMANNA,TX,Bee County
79759,"NOTREES, TX",NOTREES,TX,Ector County
77976,"NURSERY, TX",NURSERY,TX,Victoria County
79760,"ODESSA, TX",ODESSA,TX,Ector County
79761,"ODESSA, TX",ODESSA,TX,Ector County
79762,"ODESSA, TX",ODESSA,TX,Ector County
79763,"ODESSA, TX",ODESSA,TX,Ector County
79764,"ODESSA, TX",ODESSA,TX,Ector County
79765,"ODESSA, TX",ODESSA,TX,Ector County
79766,"ODESSA, TX",ODESSA,TX,Ector County
79768,"ODESSA, TX",ODESSA,TX,Ector County
79769,"ODESSA, TX",ODESSA,TX,Ector County
79351,"ODONNELL, TX",ODONNELL,TX,Lynn County
78371,"OILTON, TX",OILTON,TX,Webb County
78575,"OLMITO, TX",OLMITO,TX,Cameron County
79064,"OLTON, TX",OLTON,TX,Lamb County
79770,"ORLA, TX",ORLA,TX,Reeves County
76943,"OZONA, TX",OZONA,TX,Crockett County
76866,"PAINT ROCK, TX",PAINT ROCK,TX,Concho County
77465,"PALACIOS, TX",PALACIOS,TX,Matagorda County
78144,"PANNA MARIA, TX",PANNA MARIA,TX,Karnes County
77501,"PASADENA, TX",PASADENA,TX,Harris County
77502,"PASADENA, TX",PASADENA,TX,Harris County
77503,"PASADENA, TX",PASADENA,TX,Harris County
77504,"PASADENA, TX",PASADENA,TX,Harris County
77505,"PASADENA, TX",PASADENA,TX,Harris County
77506,"PASADENA, TX",PASADENA,TX,Harris County
77507,"PASADENA, TX",PASADENA,TX,Harris County
77508,"PASADENA, TX",PASADENA,TX,Harris County
77466,"PATTISON, TX",PATTISON,TX,Waller County
78145,"PAWNEE, TX",PAWNEE,TX,Bee County
78061,"PEARSALL, TX",PEARSALL,TX,Frio County
79772,"PECOS, TX",PECOS,TX,Reeves County
78062,"PEGGY, TX",PEGGY,TX,Atascosa County
78576,"PENITAS, TX",PENITAS,TX,Hidalgo County
79776,"PENWELL, TX",PENWELL,TX,Ector County
79353,"PEP, TX",PEP,TX,Hockley County
79070,"PERRYTON, TX",PERRYTON,TX,Ochiltree County
79250,"PETERSBURG, TX",PETERSBURG,TX,Hale County
78146,"PETTUS, TX",PETTUS,TX,Bee County
78577,"PHARR, TX",PHARR,TX,Hidalgo County
77467,"PIERCE, TX",PIERCE,TX,Wharton County
77977,"PLACEDO, TX",PLACEDO,TX,Victoria County
79355,"PLAINS, TX",PLAINS,TX,Yoakum County
79072,"PLAINVIEW, TX",PLAINVIEW,TX,Hale County
79073,"PLAINVIEW, TX",PLAINVIEW,TX,Hale County
78064,"PLEASANTON, TX",PLEASANTON,TX,Atascosa County
77468,"PLEDGER, TX",PLEDGER,TX,Matagorda County
77978,"POINT COMFORT, TX",POINT COMFORT,TX,Calhoun County
78373,"PORT ARANSAS, TX",PORT ARANSAS,TX,Nueces County
77640,"PORT ARTHUR, TX",PORT ARTHUR,TX,Jefferson County
77641,"PORT ARTHUR, TX",PORT ARTHUR,TX,Jefferson County
77642,"PORT ARTHUR, TX",PORT ARTHUR,TX,Jefferson County
77643,"PORT ARTHUR, TX",PORT ARTHUR,TX,Jefferson County
78578,"PORT ISABEL, TX",PORT ISABEL,TX,Cameron County
77979,"PORT LAVACA, TX",PORT LAVACA,TX,Calhoun County
78598,"PORT MANSFIELD, TX",PORT MANSFIELD,TX,Willacy County
77651,"PORT NECHES, TX",PORT NECHES,TX,Jefferson County
77982,"PORT O CONNOR, TX",PORT O CONNOR,TX,Calhoun County
79356,"POST, TX",POST,TX,Garza County
78065,"POTEET, TX",POTEET,TX,Atascosa County
78661,"PRAIRIE LEA, TX",PRAIRIE LEA,TX,Caldwell County
77446,"PRAIRIE VIEW, TX",PRAIRIE VIEW,TX,Waller County
79845,"PRESIDIO, TX",PRESIDIO,TX,Presidio County
78579,"PROGRESO, TX",PROGRESO,TX,Hidalgo County
79777,"PYOTE, TX",PYOTE,TX,Ward County
78877,"QUEMADO, TX",QUEMADO,TX,Maverick County
79357,"RALLS, TX",RALLS,TX,Crosby County
79778,"RANKIN, TX",RANKIN,TX,Upton County
78580,"RAYMONDVILLE, TX",RAYMONDVILLE,TX,Willacy County
78376,"REALITOS, TX",REALITOS,TX,Duval County
78377,"REFUGIO, TX",REFUGIO,TX,Refugio County
75080,"RICHARDSON, TX",RICHARDSON,TX,Dallas County
75081,"RICHARDSON, TX",RICHARDSON,TX,Dallas County
75082,"RICHARDSON, TX",RICHARDSON,TX,Dallas County
75083,"RICHARDSON, TX",RICHARDSON,TX,Dallas County
75085,"RICHARDSON, TX",RICHARDSON,TX,Dallas County
78582,"RIO GRANDE CITY, TX",RIO GRANDE CITY,TX,Starr County
78583,"RIO HONDO, TX",RIO HONDO,TX,Cameron County
78066,"RIO MEDINA, TX",RIO MEDINA,TX,Medina County
78379,"RIVIERA, TX",RIVIERA,TX,Kleberg County
78380,"ROBSTOWN, TX",ROBSTOWN,TX,Nueces County
78880,"ROCKSPRINGS, TX",ROCKSPRINGS,TX,Edwards County
78584,"ROMA, TX",ROMA,TX,Starr County
79358,"ROPESVILLE, TX",ROPESVILLE,TX,Hockley County
75030,"ROWLETT, TX",ROWLETT,TX,Dallas County
75088,"ROWLETT, TX",ROWLETT,TX,Dallas County
75089,"ROWLETT, TX",ROWLETT,TX,Dallas County
78151,"RUNGE, TX",RUNGE,TX,Karnes County
78881,"SABINAL, TX",SABINAL,TX,Uvalde County
77655,"SABINE PASS, TX",SABINE PASS,TX,Jefferson County
75048,"SACHSE, TX",SACHSE,TX,Dallas County
78152,"SAINT HEDWIG, TX",SAINT HEDWIG,TX,Bexar County
79847,"SALT FLAT, TX",SALT FLAT,TX,Hudspeth County
78201,"SAN ANTONIO, TX",SAN ANTONIO,TX,Bexar County
78202,"SAN ANTONIO, TX",SAN ANTONIO,TX,Bexar County
78203,"SAN ANTONIO, TX",SAN ANTONIO,TX,Bexar County
78204,"SAN ANTONIO, TX",SAN ANTONIO,TX,Bexar County
78205,"SAN ANTONIO, TX",SAN ANTONIO,TX,Bexar County
78206,"SAN ANTONIO, TX",SAN ANTONIO,TX,Bexar County
78207,"SAN ANTONIO, TX",SAN ANTONIO,TX,Bexar County
78208,"SAN ANTONIO, TX",SAN ANTONIO,TX,Bexar County
78209,"SAN ANTONIO, TX",SAN ANTONIO,TX,Bexar County
78210,"SAN ANTONIO, TX",SAN ANTONIO,TX,Bexar County
78211,"SAN ANTONIO, TX",SAN ANTONIO,TX,Bexar County
78212,"SAN ANTONIO, TX",SAN ANTONIO,TX,Bexar County
78213,"SAN ANTONIO, TX",SAN ANTONIO,TX,Bexar County
78214,"SAN ANTONIO, TX",SAN ANTONIO,TX,Bexar County
78215,"SAN ANTONIO, TX",SAN ANTONIO,TX,Bexar County
78216,"SAN ANTONIO, TX",SAN ANTONIO,TX,Bexar County
78217,"SAN ANTONIO, TX",SAN ANTONIO,TX,Bexar County
78218,"SAN ANTONIO, TX",SAN ANTONIO,TX,Bexar County
78219,"SAN ANTONIO, TX",SAN ANTONIO,TX,Bexar County
78220,"SAN ANTONIO, TX",SAN ANTONIO,TX,Bexar County
78221,"SAN ANTONIO, TX",SAN ANTONIO,TX,Bexar County
78222,"SAN ANTONIO, TX",SAN ANTONIO,TX,Bexar County
78223,"SAN ANTONIO, TX",SAN ANTONIO,TX,Bexar County
78224,"SAN ANTONIO, TX",SAN ANTONIO,TX,Bexar County
78225,"SAN ANTONIO, TX",SAN ANTONIO,TX,Bexar County
78226,"SAN ANTONIO, TX",SAN ANTONIO,TX,Bexar County
78227,"SAN ANTONIO, TX",SAN ANTONIO,TX,Bexar County
78228,"SAN ANTONIO, TX",SAN ANTONIO,TX,Bexar County
78229,"SAN ANTONIO, TX",SAN ANTONIO,TX,Bexar County
78230,"SAN ANTONIO, TX",SAN ANTONIO,TX,Bexar County
78231,"SAN ANTONIO, TX",SAN ANTONIO,TX,Bexar County
78232,"SAN ANTONIO, TX",SAN ANTONIO,TX,Bexar County
78233,"SAN ANTONIO, TX",SAN ANTONIO,TX,Bexar County
78235,"SAN ANTONIO, TX",SAN ANTONIO,TX,Bexar County
78237,"SAN ANTONIO, TX",SAN ANTONIO,TX,Bexar County
78238,"SAN ANTONIO, TX",SAN ANTONIO,TX,Bexar County
78239,"SAN ANTONIO, TX",SAN ANTONIO,TX,Bexar County
78240,"SAN ANTONIO, TX",SAN ANTONIO,TX,Bexar County
78241,"SAN ANTONIO, TX",SAN ANTONIO,TX,Bexar County
78242,"SAN ANTONIO, TX",SAN ANTONIO,TX,Bexar County
78243,"SAN ANTONIO, TX",SAN ANTONIO,TX,Bexar County
78244,"SAN ANTONIO, TX",SAN ANTONIO,TX,Bexar County
78245,"SAN ANTONIO, TX",SAN ANTONIO,TX,Bexar County
78246,"SAN ANTONIO, TX",SAN ANTONIO,TX,Bexar County
78247,"SAN ANTONIO, TX",SAN ANTONIO,TX,Bexar County
78248,"SAN ANTONIO, TX",SAN ANTONIO,TX,Bexar County
78249,"SAN ANTONIO, TX",SAN ANTONIO,TX,Bexar County
78250,"SAN ANTONIO, TX",SAN ANTONIO,TX,Bexar County
78251,"SAN ANTONIO, TX",SAN ANTONIO,TX,Bexar County
78252,"SAN ANTONIO, TX",SAN ANTONIO,TX,Bexar County
78253,"SAN ANTONIO, TX",SAN ANTONIO,TX,Bexar County
78254,"SAN ANTONIO, TX",SAN ANTONIO,TX,Bexar County
78255,"SAN ANTONIO, TX",SAN ANTONIO,TX,Bexar County
78256,"SAN ANTONIO, TX",SAN ANTONIO,TX,Bexar County
78257,"SAN ANTONIO, TX",SAN ANTONIO,TX,Bexar County
78258,"SAN ANTONIO, TX",SAN ANTONIO,TX,Bexar County
78259,"SAN ANTONIO, TX",SAN ANTONIO,TX,Bexar County
78260,"SAN ANTONIO, TX",SAN ANTONIO,TX,Bexar County
78261,"SAN ANTONIO, TX",SAN ANTONIO,TX,Bexar County
78263,"SAN ANTONIO, TX",SAN ANTONIO,TX,Bexar County
78264,"SAN ANTONIO, TX",SAN ANTONIO,TX,Bexar County
78265,"SAN ANTONIO, TX",SAN ANTONIO,TX,Bexar County
78268,"SAN ANTONIO, TX",SAN ANTONIO,TX,Bexar County
78269,"SAN ANTONIO, TX",SAN ANTONIO,TX,Bexar County
78270,"SAN ANTONIO, TX",SAN ANTONIO,TX,Bexar County
78278,"SAN ANTONIO, TX",SAN ANTONIO,TX,Bexar County
78279,"SAN ANTONIO, TX",SAN ANTONIO,TX,Bexar County
78280,"SAN ANTONIO, TX",SAN ANTONIO,TX,Bexar County
78283,"SAN ANTONIO, TX",SAN ANTONIO,TX,Bexar County
78284,"SAN ANTONIO, TX",SAN ANTONIO,TX,Bexar County
78288,"SAN ANTONIO, TX",SAN ANTONIO,TX,Bexar County
78289,"SAN ANTONIO, TX",SAN ANTONIO,TX,Bexar County
78291,"SAN ANTONIO, TX",SAN ANTONIO,TX,Bexar County
78294,"SAN ANTONIO, TX",SAN ANTONIO,TX,Bexar County
78295,"SAN ANTONIO, TX",SAN ANTONIO,TX,Bexar County
78296,"SAN ANTONIO, TX",SAN ANTONIO,TX,Bexar County
78297,"SAN ANTONIO, TX",SAN ANTONIO,TX,Bexar County
78299,"SAN ANTONIO, TX",SAN ANTONIO,TX,Bexar County
78586,"SAN BENITO, TX",SAN BENITO,TX,Cameron County
78384,"SAN DIEGO, TX",SAN DIEGO,TX,Duval County
78588,"SAN ISIDRO, TX",SAN ISIDRO,TX,Starr County
78589,"SAN JUAN, TX",SAN JUAN,TX,Hidalgo County
78590,"SAN PERLITA, TX",SAN PERLITA,TX,Willacy County
78067,"SAN YGNACIO, TX",SAN YGNACIO,TX,Zapata County
79848,"SANDERSON, TX",SANDERSON,TX,Terrell County
78591,"SANTA ELENA, TX",SANTA ELENA,TX,Starr County
78592,"SANTA MARIA, TX",SANTA MARIA,TX,Cameron County
78593,"SANTA ROSA, TX",SANTA ROSA,TX,Cameron County
79780,"SARAGOSA, TX",SARAGOSA,TX,Reeves County
78385,"SARITA, TX",SARITA,TX,Kenedy County
77586,"SEABROOK, TX",SEABROOK,TX,Harris County
77983,"SEADRIFT, TX",SEADRIFT,TX,Calhoun County
75159,"SEAGOVILLE, TX",SEAGOVILLE,TX,Dallas County
78594,"SEBASTIAN, TX",SEBASTIAN,TX,Willacy County
79781,"SHEFFIELD, TX",SHEFFIELD,TX,Pecos County
79851,"SIERRA BLANCA, TX",SIERRA BLANCA,TX,Hudspeth County
78389,"SKIDMORE, TX",SKIDMORE,TX,Bee County
78159,"SMILEY, TX",SMILEY,TX,Gonzales County
79367,"SMYER, TX",SMYER,TX,Hockley County
78069,"SOMERSET, TX",SOMERSET,TX,Bexar County
76950,"SONORA, TX",SONORA,TX,Sutton County
77587,"SOUTH HOUSTON, TX",SOUTH HOUSTON,TX,Harris County
78597,"SOUTH PADRE ISLAND, TX",SOUTH PADRE ISLAND,TX,Cameron County
79369,"SPADE, TX",SPADE,TX,Lamb County
77373,"SPRING, TX",SPRING,TX,Harris County
77379,"SPRING, TX",SPRING,TX,Harris County
77383,"SPRING, TX",SPRING,TX,Harris County
77388,"SPRING, TX",SPRING,TX,Harris County
77389,"SPRING, TX",SPRING,TX,Harris County
77391,"SPRING, TX",SPRING,TX,Harris County
79082,"SPRINGLAKE, TX",SPRINGLAKE,TX,Lamb County
79371,"SUDAN, TX",SUDAN,TX,Lamb County
78595,"SULLIVAN CITY, TX",SULLIVAN CITY,TX,Hidalgo County
79085,"SUMMERFIELD, TX",SUMMERFIELD,TX,Castro County
79372,"SUNDOWN, TX",SUNDOWN,TX,Hockley County
75182,"SUNNYVALE, TX",SUNNYVALE,TX,Dallas County
79086,"SUNRAY, TX",SUNRAY,TX,Moore County
79373,"TAHOKA, TX",TAHOKA,TX,Lynn County
77988,"TELFERNER, TX",TELFERNER,TX,Victoria County
77990,"TIVOLI, TX",TIVOLI,TX,Refugio County
77375,"TOMBALL, TX",TOMBALL,TX,Harris County
77377,"TOMBALL, TX",TOMBALL,TX,Harris County
79785,"TOYAH, TX",TOYAH,TX,Reeves County
79786,"TOYAHVALE, TX",TOYAHVALE,TX,Reeves County
78162,"TULETA, TX",TULETA,TX,Bee County
79088,"TULIA, TX",TULIA,TX,Swisher County
78391,"TYNAN, TX",TYNAN,TX,Bee County
78148,"UNIVERSAL CITY, TX",UNIVERSAL CITY,TX,Bexar County
78884,"UTOPIA, TX",UTOPIA,TX,Uvalde County
78801,"UVALDE, TX",UVALDE,TX,Uvalde County
78802,"UVALDE, TX",UVALDE,TX,Uvalde County
79854,"VALENTINE, TX",VALENTINE,TX,Presidio County
79855,"VAN HORN, TX",VAN HORN,TX,Culberson County
77482,"VAN VLECK, TX",VAN VLECK,TX,Matagorda County
77901,"VICTORIA, TX",VICTORIA,TX,Victoria County
77902,"VICTORIA, TX",VICTORIA,TX,Victoria County
77903,"VICTORIA, TX",VICTORIA,TX,Victoria County
77904,"VICTORIA, TX",VICTORIA,TX,Victoria County
77905,"VICTORIA, TX",VICTORIA,TX,Victoria County
78073,"VON ORMY, TX",VON ORMY,TX,Bexar County
77483,"WADSWORTH, TX",WADSWORTH,TX,Matagorda County
78959,"WAELDER, TX",WAELDER,TX,Gonzales County
79093,"WAKA, TX",WAKA,TX,Ochiltree County
77484,"WALLER, TX",WALLER,TX,Harris County
77598,"WEBSTER, TX",WEBSTER,TX,Harris County
79377,"WELCH, TX",WELCH,TX,Dawson County
79378,"WELLMAN, TX",WELLMAN,TX,Terry County
78596,"WESLACO, TX",WESLACO,TX,Hidalgo County
78599,"WESLACO, TX",WESLACO,TX,Hidalgo County
79565,"WESTBROOK, TX",WESTBROOK,TX,Mitchell County
77488,"WHARTON, TX",WHARTON,TX,Wharton County
79379,"WHITEFACE, TX",WHITEFACE,TX,Cochran County
79788,"WICKETT, TX",WICKETT,TX,Ward County
75172,"WILMER, TX",WILMER,TX,Dallas County
79381,"WILSON, TX",WILSON,TX,Lynn County
75493,"WINFIELD, TX",WINFIELD,TX,Titus County
79789,"WINK, TX",WINK,TX,Winkler County
78393,"WOODSBORO, TX",WOODSBORO,TX,Refugio County
78886,"YANCEY, TX",YANCEY,TX,Medina County
78076,"ZAPATA, TX",ZAPATA,TX,Zapata County
